[{"OBJECT_NAME":"STARLINK-4484","OBJECT_ID":"2022-097AF","EPOCH":"2026-03-09T08:33:08.454240","MEAN_MOTION":15.08837351,"ECCENTRICITY":0.00013191,"INCLINATION":53.2157,"RA_OF_ASC_NODE":115.6161,"ARG_OF_PERICENTER":93.7203,"MEAN_ANOMALY":266.394,"EPHEMERIS_TYPE":0,"CLASSIFICATION_TYPE":"U","NORAD_CAT_ID":53417,"ELEMENT_SET_NO":999,"REV_AT_EPOCH":19857,"BSTAR":0.00025219703,"MEAN_MOTION_DOT":3.728e-5,"MEAN_MOTION_DDOT":0},{"OBJECT_NAME":"PACE","OBJECT_ID":"2014-033N","EPOCH":"2026-03-09T22:47:44.809152","MEAN_MOTION":15.09745465,"ECCENTRICITY":0.00061206,"INCLINATION":98.125,"RA_OF_ASC_NODE":67.7953,"ARG_OF_PERICENTER":179.3374,"MEAN_ANOMALY":180.7863,"EPHEMERIS_TYPE":0,"CLASSIFICATION_TYPE":"U","NORAD_CAT_ID":40022,"ELEMENT_SET_NO":999,"REV_AT_EPOCH":63805,"BSTAR":0.00051174262,"MEAN_MOTION_DOT":8.193e-5,"MEAN_MOTION_DDOT":0}]
